COMMENT,ORIGINATOR,NORAD_CAT_ID,OBJECT_NAME,OBJECT_TYPE,CLASSIFICATION_TYPE,INTLDES,EPOCH,EPOCH_MICROSECONDS,MEAN_MOTION,ECCENTRICITY,INCLINATION,RA_OF_ASC_NODE,ARG_OF_PERICENTER,MEAN_ANOMALY,EPHEMERIS_TYPE,ELEMENT_SET_NO,REV_AT_EPOCH,BSTAR,MEAN_MOTION_DOT,MEAN_MOTION_DDOT,FILE,TLE_LINE0,TLE_LINE1,TLE_LINE2,OBJECT_ID,OBJECT_NUMBER,SEMIMAJOR_AXIS,PERIOD,APOGEE,PERIGEE,DECAYED,date
GENERATED VIA SPACETRACK.ORG API,18 SPCS,48899,SPACEBEE-110,PAYLOAD,U,21059W,2023/4/5 8:45,444704,15.27813295,0.0008477,97.5867,231.4311,170.1976,189.943,0,999,9829,0.0014898,0.00040606,0,3880853,0 SPACEBEE-110,1 48899U 21059W   23095.36515561  .00040606  00000-0  14898-2 0  9994,2 48899  97.5867 231.4311 0008477 170.1976 189.9430 15.27813295 98299,2021-059W,48899,6860.488,94.252,488.168,476.537,0,
GENERATED VIA SPACETRACK.ORG API,18 SPCS,48899,SPACEBEE-110,PAYLOAD,U,21059W,2023/4/5 19:46,367104,15.27849507,0.0008482,97.5868,231.8976,168.7542,191.3888,0,999,9836,0.001417,0.00038651,0,3881153,0 SPACEBEE-110,1 48899U 21059W   23095.82361536  .00038651  00000-0  14170-2 0  9996,2 48899  97.5868 231.8976 0008482 168.7542 191.3888 15.27849507 98366,2021-059W,48899,6860.379,94.25,488.063,476.425,0,
GENERATED VIA SPACETRACK.ORG API,18 SPCS,48899,SPACEBEE-110,PAYLOAD,U,21059W,2023/4/6 8:20,898880,15.27888241,0.0008465,97.5869,232.4308,166.8912,193.2548,0,999,9844,0.0013677,0.00037341,0,3881473,0 SPACEBEE-110,1 48899U 21059W   23096.34755670  .00037341  00000-0  13677-2 0  9996,2 48899  97.5869 232.4308 0008465 166.8912 193.2548 15.27888241 98445,2021-059W,48899,6860.263,94.248,487.935,476.321,0,
GENERATED VIA SPACETRACK.ORG API,18 SPCS,48899,SPACEBEE-110,PAYLOAD,U,21059W,2023/4/6 14:37,703392,15.27907936,0.0008465,97.5869,232.6974,166.0047,194.1428,0,999,9848,0.001357,0.00037069,0,3881771,0 SPACEBEE-110,1 48899U 21059W   23096.60952203  .00037069  00000-0  13570-2 0  9995,2 48899  97.5869 232.6974 0008465 166.0047 194.1428 15.27907936 98481,2021-059W,48899,6860.204,94.247,487.876,476.262,0,
GENERATED VIA SPACETRACK.ORG API,18 SPCS,48899,SPACEBEE-110,PAYLOAD,U,21059W,2023/4/6 19:20,862592,15.27923154,0.000844,97.5871,232.8974,165.5788,194.5693,0,999,9851,0.0013245,0.00036191,0,3882049,0 SPACEBEE-110,1 48899U 21059W   23096.80599378  .00036191  00000-0  13245-2 0  9991,2 48899  97.5871 232.8974 0008440 165.5788 194.5693 15.27923154 98517,2021-059W,48899,6860.159,94.246,487.814,476.234,0,
GENERATED VIA SPACETRACK.ORG API,18 SPCS,48899,SPACEBEE-110,PAYLOAD,U,21059W,2023/4/7 7:55,131552,15.27966339,0.0008325,97.5875,233.4307,164.0011,196.1492,0,999,9859,0.0014717,0.00040296,0,3882626,0 SPACEBEE-110,1 48899U 21059W   23097.32990893  .00040296  00000-0  14717-2 0  9992,2 48899  97.5875 233.4307 0008325 164.0011 196.1492 15.27966339 98598,2021-059W,48899,6860.03,94.243,487.605,476.184,0,
GENERATED VIA SPACETRACK.ORG API,18 SPCS,48899,SPACEBEE-110,PAYLOAD,U,21059W,2023/4/7 18:55,89920,15.28001239,0.0008404,97.5874,233.897,162.457,197.6961,0,999,9866,0.0013714,0.00037571,0,3882810,0 SPACEBEE-110,1 48899U 21059W   23097.78832280  .00037571  00000-0  13714-2 0  9995,2 48899  97.5874 233.8970 0008404 162.4570 197.6961 15.28001239 98662,2021-059W,48899,6859.925,94.241,487.555,476.025,0,
GENERATED VIA SPACETRACK.ORG API,18 SPCS,48899,SPACEBEE-110,PAYLOAD,U,21059W,2023/4/8 9:03,59680,15.2804391,0.0008419,97.5878,234.4966,160.0722,200.0848,0,999,9875,0.0012927,0.00035447,0,3883527,0 SPACEBEE-110,1 48899U 21059W   23098.37769745  .00035447  00000-0  12927-2 0  9991,2 48899  97.5878 234.4966 0008419 160.0722 200.0848 15.28043910 98752,2021-059W,48899,6859.797,94.238,487.438,475.887,0,
GENERATED VIA SPACETRACK.ORG API,18 SPCS,48899,SPACEBEE-110,PAYLOAD,U,21059W,2023/4/8 20:03,4064,15.28078427,0.0008426,97.588,234.9633,158.3949,201.7647,0,999,9882,0.0012779,0.00035075,0,3883748,0 SPACEBEE-110,1 48899U 21059W   23098.83608801  .00035075  00000-0  12779-2 0  9999,2 48899  97.5880 234.9633 0008426 158.3949 201.7647 15.28078427 98824,2021-059W,48899,6859.694,94.236,487.339,475.779,0,
GENERATED VIA SPACETRACK.ORG API,18 SPCS,48899,SPACEBEE-110,PAYLOAD,U,21059W,2023/4/9 8:38,781952,15.28116408,0.0008426,97.5878,235.497,156.6039,203.5585,0,999,9890,0.0013367,0.00036743,0,3884332,0 SPACEBEE-110,1 48899U 21059W   23099.35995118  .00036743  00000-0  13367-2 0  9994,2 48899  97.5878 235.4970 0008426 156.6039 203.5585 15.28116408 98904,2021-059W,48899,6859.58,94.234,487.225,475.665,0,
GENERATED VIA SPACETRACK.ORG API,18 SPCS,48899,SPACEBEE-110,PAYLOAD,U,21059W,2023/4/10 8:12,637824,15.28187489,0.0008346,97.5879,236.4972,153.9482,206.2178,0,999,9905,0.0014018,0.00038629,0,3884926,0 SPACEBEE-110,1 48899U 21059W   23100.34216016  .00038629  00000-0  14018-2 0  9998,2 48899  97.5879 236.4972 0008346 153.9482 206.2178 15.28187489 99053,2021-059W,48899,6859.368,94.229,486.957,475.508,0,
GENERATED VIA SPACETRACK.ORG API,18 SPCS,48899,SPACEBEE-110,PAYLOAD,U,21059W,2023/4/10 8:12,637824,15.28187489,0.0008346,97.5879,236.4972,153.9482,206.2178,0,999,9905,0.0014018,0.00038629,0,3885195,0 SPACEBEE-110,1 48899U 21059W   23100.34216016  .00038629  00000-0  14018-2 0  9998,2 48899  97.5879 236.4972 0008346 153.9482 206.2178 15.28187489 99053,2021-059W,48899,6859.368,94.229,486.957,475.508,0,
GENERATED VIA SPACETRACK.ORG API,18 SPCS,48899,SPACEBEE-110,PAYLOAD,U,21059W,2023/4/11 7:47,167648,15.2826442,0.0008284,97.588,237.4976,150.9084,209.2618,0,999,9920,0.0012788,0.00035299,0,3885783,0 SPACEBEE-110,1 48899U 21059W   23101.32431907  .00035299  00000-0  12788-2 0  9997,2 48899  97.5880 237.4976 0008284 150.9084 209.2618 15.28264420 99206,2021-059W,48899,6859.137,94.225,486.685,475.32,0,
GENERATED VIA SPACETRACK.ORG API,18 SPCS,48899,SPACEBEE-110,PAYLOAD,U,21059W,2023/4/12 2:38,872640,15.28326769,0.0008269,97.5881,238.2981,147.8129,212.3616,0,999,9932,0.0013308,0.00036815,0,3886125,0 SPACEBEE-110,1 48899U 21059W   23102.11001010  .00036815  00000-0  13308-2 0  9997,2 48899  97.5881 238.2981 0008269 147.8129 212.3616 15.28326769 99321,2021-059W,48899,6858.951,94.221,486.488,475.144,0,
GENERATED VIA SPACETRACK.ORG API,18 SPCS,48899,SPACEBEE-110,PAYLOAD,U,21059W,2023/4/12 8:55,178144,15.28347221,0.0008269,97.5882,238.5649,146.7985,213.3774,0,999,9936,0.0012826,0.00035495,0,3886349,0 SPACEBEE-110,1 48899U 21059W   23102.37190021  .00035495  00000-0  12826-2 0  9993,2 48899  97.5882 238.5649 0008269 146.7985 213.3774 15.28347221 99360,2021-059W,48899,6858.89,94.219,486.426,475.083,0,
GENERATED VIA SPACETRACK.ORG API,18 SPCS,48899,SPACEBEE-110,PAYLOAD,U,21059W,2023/4/13 8:29,933184,15.28422955,0.0008232,97.5882,239.5656,143.6477,216.5322,0,999,9951,0.0013588,0.00037706,0,3886564,0 SPACEBEE-110,1 48899U 21059W   23103.35395756  .00037706  00000-0  13588-2 0  9997,2 48899  97.5882 239.5656 0008232 143.6477 216.5322 15.28422955 99510,2021-059W,48899,6858.663,94.215,486.174,474.882,0,
GENERATED VIA SPACETRACK.ORG API,18 SPCS,48899,SPACEBEE-110,PAYLOAD,U,21059W,2023/4/13 14:46,807904,15.28444168,0.0008222,97.5881,239.8324,142.7717,217.4093,0,999,9955,0.0013946,0.00038732,0,3886918,0 SPACEBEE-110,1 48899U 21059W   23103.61583111  .00038732  00000-0  13946-2 0  9998,2 48899  97.5881 239.8324 0008222 142.7717 217.4093 15.28444168 99559,2021-059W,48899,6858.6,94.213,486.104,474.826,0,
GENERATED VIA SPACETRACK.ORG API,18 SPCS,48899,SPACEBEE-110,PAYLOAD,U,21059W,2023/4/14 8:03,326752,15.28505334,0.0008102,97.5879,240.5661,140.7617,219.4211,0,999,9966,0.0015063,0.00041935,0,3887333,0 SPACEBEE-110,1 48899U 21059W   23104.33596443  .00041935  00000-0  15063-2 0  9991,2 48899  97.5879 240.5661 0008102 140.7617 219.4211 15.28505334 99662,2021-059W,48899,6858.417,94.21,485.838,474.725,0,
GENERATED VIA SPACETRACK.ORG API,18 SPCS,48899,SPACEBEE-110,PAYLOAD,U,21059W,2023/4/15 7:37,824896,15.28599601,0.0008063,97.5876,241.5665,137.2504,222.9363,0,999,9981,0.0016813,0.00046981,0,3887974,0 SPACEBEE-110,1 48899U 21059W   23105.31791464  .00046981  00000-0  16813-2 0  9990,2 48899  97.5876 241.5665 0008063 137.2504 222.9363 15.28599601 99810,2021-059W,48899,6858.135,94.204,485.529,474.47,0,
GENERATED VIA SPACETRACK.ORG API,18 SPCS,48899,SPACEBEE-110,PAYLOAD,U,21059W,2023/4/15 21:46,539904,15.28659691,0.0008051,97.5879,242.167,135.075,225.1142,0,999,9990,0.0017448,0.0004886,0,3888171,0 SPACEBEE-110,1 48899U 21059W   23105.90705486  .00048860  00000-0  17448-2 0  9997,2 48899  97.5879 242.1670 0008051 135.0750 225.1142 15.28659691 99908,2021-059W,48899,6857.955,94.2,485.341,474.299,0,
GENERATED VIA SPACETRACK.ORG API,18 SPCS,48899,SPACEBEE-110,PAYLOAD,U,21059W,2023/4/16 4:03,907648,15.28684169,0.0008052,97.588,242.4339,134.0296,226.1608,0,999,9994,0.0017289,0.00048448,0,3888356,0 SPACEBEE-110,1 48899U 21059W   23106.16888782  .00048448  00000-0  17289-2 0  9992,2 48899  97.5880 242.4339 0008052 134.0296 226.1608 15.28684169 99940,2021-059W,48899,6857.882,94.199,485.269,474.225,0,
GENERATED VIA SPACETRACK.ORG API,18 SPCS,48899,SPACEBEE-110,PAYLOAD,U,21059W,2023/4/16 8:45,424256,15.28703628,0.0008038,97.588,242.6341,133.3394,226.8516,0,999,9997,0.0016838,0.00047202,0,3888626,0 SPACEBEE-110,1 48899U 21059W   23106.36525954  .00047202  00000-0  16838-2 0  9999,2 48899  97.5880 242.6341 0008038 133.3394 226.8516 15.28703628 99970,2021-059W,48899,6857.824,94.197,485.201,474.176,0,
GENERATED VIA SPACETRACK.ORG API,18 SPCS,48899,SPACEBEE-110,PAYLOAD,U,21059W,2023/4/16 21:20,412736,15.28754794,0.0007987,97.588,243.1679,131.6862,228.5062,0,999,10005,0.001628,0.00045697,0,3888799,0 SPACEBEE-110,1 48899U 21059W   23106.88890524  .00045697  00000-0  16280-2 0  9991,2 48899  97.5880 243.1679 0007987 131.6862 228.5062 15.28754794100050,2021-059W,48899,6857.671,94.194,485.013,474.058,0,
